{
    "CCSDS_OMM_VERS": "3.0",
    "COMMENT": "GENERATED VIA SPACE-TRACK.ORG API",
    "CREATION_DATE": "2025-05-23T06:26:20",
    "ORIGINATOR": "18 SPCS",
    "OBJECT_NAME": "GALILEO 27 (223)",
    "OBJECT_ID": "2021-116A",
    "CENTER_NAME": "EARTH",
    "REF_FRAME": "TEME",
    "TIME_SYSTEM": "UTC",
    "MEAN_ELEMENT_THEORY": "SGP4",
    "EPOCH": "2025-05-23T04:36:35.309376",
    "MEAN_MOTION": "1.70475452",
    "ECCENTRICITY": "0.00006930",
    "INCLINATION": "57.2639",
    "RA_OF_ASC_NODE": "352.2036",
    "ARG_OF_PERICENTER": "181.6138",
    "MEAN_ANOMALY": "349.5949",
    "EPHEMERIS_TYPE": "0",
    "CLASSIFICATION_TYPE": "U",
    "NORAD_CAT_ID": "49809",
    "ELEMENT_SET_NO": "999",
    "REV_AT_EPOCH": "2152",
    "BSTAR": "0.00000000000000",
    "MEAN_MOTION_DOT": "-0.00000070",
    "MEAN_MOTION_DDOT": "0.0000000000000",
    "SEMIMAJOR_AXIS": "29600.152",
    "PERIOD": "844.696",
    "APOAPSIS": "23224.068",
    "PERIAPSIS": "23219.966",
    "OBJECT_TYPE": "PAYLOAD",
    "RCS_SIZE": "LARGE",
    "COUNTRY_CODE": "ESA",
    "LAUNCH_DATE": "2021-12-05",
    "SITE": "FRGUI",
    "DECAY_DATE": null,
    "FILE": "4736612",
    "GP_ID": "288165865",
    "TLE_LINE0": "0 GALILEO 27 (223)",
    "TLE_LINE1": "1 49809U 21116A   25143.19207534 -.00000070  00000-0  00000+0 0  9994",
    "TLE_LINE2": "2 49809  57.2639 352.2036 0000693 181.6138 349.5949  1.70475452 21529"
}